TYVAK-0129              
1 44853U 19089B   24036.55311304  .00039972  00000+0  15382-2 0  9998
2 44853  36.9592  95.0021 0010212 156.1191 204.0035 15.25427638228556
DUCHIFAT-3              
1 44854U 19089C   24036.62769856  .00014656  00000+0  84638-3 0  9999
2 44854  36.9589 130.7811 0007801  87.3764 272.7874 15.11677531228106
ANGELS                  
1 44876U 19092D   24036.47668200  .00008211  00000+0  33534-3 0  9990
2 44876  97.4745 225.0730 0011645  69.4560 290.7926 15.24590852229125
OPS-SAT                 
1 44878U 19092F   24036.51814885  .00084105  00000+0  13144-2 0  9999
2 44878  97.4572 235.8320 0006203   9.6528 350.4843 15.53480659229759
TIANQIN 1 (CAS-6)       
1 44879U 19093A   24036.73196558  .00003571  00000+0  41527-3 0  9990
2 44879  97.8473 117.9895 0014281  34.0074 326.2054 14.85880527223519
ETRSS-1                 
1 44880U 19093B   24036.78815722  .00004177  00000+0  48305-3 0  9992
2 44880  97.8478 118.1393 0014564  35.3817 324.8362 14.86008264223512
TIANYAN 01              
1 44881U 19093C   24036.77140306  .00001341  00000+0  17029-3 0  9990
2 44881  97.8408 116.0991 0015413  40.0283 320.2063 14.83239188223416
TIANYAN 02              
1 44882U 19093D   24036.81114396  .00005648  00000+0  61915-3 0  9993
2 44882  97.8546 120.2231 0014921  31.7435 328.4678 14.88051575223591
CBERS 4A                
1 44883U 19093E   24036.79181620  .00001791  00000+0  23465-3 0  9998
2 44883  97.8431 115.7274 0002748 105.2376 254.9141 14.81569254223382
WEILAI 1R               
1 44884U 19093F   24036.80408661  .00004623  00000+0  51558-3 0  9999
2 44884  97.8470 119.3812 0013046  36.4459 323.7642 14.87465503223619
YUHENG                  
1 44885U 19093G   24036.78578392  .00005993  00000+0  65264-3 0  9996
2 44885  97.8504 120.5412 0013739  37.1264 323.0900 14.88309387223662
SHUNTIAN                
1 44886U 19093H   24036.76362403  .00003754  00000+0  42898-3 0  9990
2 44886  97.8550 120.7911 0014970  44.1929 316.0479 14.86561724223648
2019-093L               
1 44889U 19093L   24036.79387265  .00003464  00000+0  40944-3 0  9997
2 44889  97.8366 115.5098 0014998  29.0693 331.1354 14.85216659223333
ELEKTRO-L 3             
1 44903U 19095A   24036.81368932 -.00000084  00000+0  00000+0 0  9990
2 44903   0.0500 281.8676 0000963  47.5014 175.0632  1.00271606 15041
GONETS-M 14             
1 44905U 19096A   24036.59881774  .00000035  00000+0  18133-3 0  9997
2 44905  82.5194 259.3805 0013021 235.6100 124.3749 12.42865455186523
GONETS-M 15             
1 44906U 19096B   24036.62495162  .00000033  00000+0  17106-3 0  9991
2 44906  82.5215 259.6806 0014953 258.6855 101.2545 12.42867717186496
GONETS-M 16             
1 44907U 19096C   24036.57115673  .00000038  00000+0  20530-3 0  9992
2 44907  82.5159 259.0531 0011190 302.6401  57.3599 12.42902918186471
RS-44 & BREEZE-KM R/B   
1 44909U 19096E   24036.51642849  .00000021  00000+0  39083-4 0  9994
2 44909  82.5220 192.9075 0217389   1.6966 358.4824 12.79726282192000
JILIN-1 KUANFU 01       
1 45016U 20003A   24036.77708735  .00006123  00000+0  35124-3 0  9999
2 45016  97.5966 110.2895 0007560 144.1342 216.0398 15.12908006225047
XINGYUN-2 01            
1 45602U 20028A   24036.78640639  .00002593  00000+0  18845-3 0  9994
2 45602  97.4519  41.9810 0009598 286.5460  73.4712 15.04665428204820
XINGYUN-2 02            
1 45603U 20028B   24036.77204286  .00003520  00000+0  25423-3 0  9999
2 45603  97.5218  50.5350 0012431 354.0226   6.0851 15.04655001204826
HAIYANG-1D              
1 45721U 20036A   24036.85213752  .00000332  00000+0  13417-3 0  9994
2 45721  98.5778 338.3045 0003662 118.6360 241.5193 14.34216201191373
M2 PATHFINDER           
1 45727U 20037E   24036.46333071  .00003673  00000+0  33308-3 0  9997
2 45727  97.7665 213.7736 0010869 202.6114 157.4630 14.95907558196090
GAOFEN DUOMO (GFDM)     
1 45856U 20042A   24036.83232666  .00001362  00000+0  20120-3 0  9996
2 45856  97.8838 111.2211 0012362   0.3257 359.7959 14.76791744193733
BY70-2                  
1 45857U 20042B   24036.82805538  .00045688  00000+0  31181-2 0  9997
2 45857  97.9188 124.7448 0007554 299.3545  60.6926 15.06013830194494
ZINYUAN-3               
1 45939U 20051A   24036.77282621  .00007840  00000+0  35462-3 0  9999
2 45939  97.3789 115.8591 0012421 100.7778 259.4857 15.21118136196235
TIANQI-10               
1 45941U 20051C   24036.78350177  .00065749  00000+0  80681-3 0  9990
2 45941  97.4063 138.8215 0005819 357.7026   2.4202 15.60091482197626
Q-SAT                   
1 46026U 20054B   24036.79478212  .00069312  00000+0  89515-3 0  9995
2 46026  97.3480 128.0478 0007234  36.6027 323.5722 15.58712279195670
GLOBAL-8                
1 46089U 20055BQ  24036.75838133  .00164053  00000+0  10550-2 0  9993
2 46089  52.9816 209.7175 0004168 184.9747 175.1230 15.75199453203610
TIANTUO 5               
1 46234U 20058C   24036.77893307  .00018618  00000+0  57198-3 0  9999
2 46234  97.3221  95.6343 0014365 128.3008 231.9528 15.33655953192452
TYVAK-0172              
1 46267U 20059C   24036.55062238  .00015352  00000+0  12145-2 0  9997
2 46267  97.8384 237.7920 0002790  18.7114 341.4211 15.00713968186838
ION-MK01                
1 46274U 20061C   24036.43369867  .00011308  00000+0  43607-3 0  9998
2 46274  97.3196 102.8410 0004742 177.6307 182.4955 15.26464912189703
UPMSAT-2                
1 46276U 20061E   24036.45684519  .00014986  00000+0  53240-3 0  9995
2 46276  97.3170 104.6311 0000706 146.5555 213.5730 15.29114681189865
NEMO-HD                 
1 46277U 20061F   24036.78529433  .00007517  00000+0  31415-3 0  9997
2 46277  97.3175 102.6836 0000717 153.5784 206.5490 15.23892329189765
SIMBA                   
1 46279U 20061H   24036.16496520  .00046250  00000+0  12177-2 0  9991
2 46279  97.3709 107.1266 0002363 336.2005  23.9130 15.38397510189368
TRISAT                  
1 46280U 20061J   24036.46076321  .00040636  00000+0  11808-2 0  9991
2 46280  97.3600 105.9775 0002260 340.6531  19.4626 15.35355396189363
PICASSO-BEL             
1 46281U 20061K   24036.19738898  .00129409  00000+0  18508-2 0  9996
2 46281  97.3665 111.6290 0003621 291.3475  68.7393 15.55766161189694
DIDO 3                  
1 46284U 20061N   24036.72918709  .00020786  00000+0  79141-3 0  9998
2 46284  97.3691 103.8408 0002459   2.1457 357.9792 15.26758902189188
FLOCK 4V-14             
1 46286U 20061Q   24036.51258542  .00028460  00000+0  82910-3 0  9994
2 46286  97.3743 109.4649 0002139 328.4299  31.6816 15.35352008189551
AMICALSAT               
1 46287U 20061R   24036.83822233  .00025033  00000+0  89773-3 0  9991
2 46287  97.3701 104.8420 0001951  20.4593 339.6725 15.28697853189292
3CAT-5A                 
1 46292U 20061W   24036.12248376  .00008258  00000+0  39883-3 0  9996
2 46292  97.3693 100.2567 0002394 346.0282  14.0886 15.18899306188910
3CAT-5B                 
1 46293U 20061X   24036.12879330  .00008401  00000+0  40379-3 0  9999
2 46293  97.3698 100.5261 0002204 342.1400  17.9757 15.19061220188904
OSM-1 CICERO            
1 46294U 20061Y   24036.45864589  .00017166  00000+0  68123-3 0  9991
2 46294  97.3709 103.9974 0001831 328.1098  32.0029 15.25418397189187
TYVAK-0171              
1 46295U 20061Z   24036.74165866  .02280038  52293-2  28105-2 0  9997
2 46295  97.3534 118.4539 0009562 294.0035  66.0247 16.09158751190058
FLOCK 4V-10             
1 46296U 20061AA  24036.51175855  .00024604  00000+0  72024-3 0  9991
2 46296  97.3746 109.6946 0000761   4.7364 355.3886 15.35230078189525
FLOCK 4V-13             
1 46297U 20061AB  24036.19517656  .00023177  00000+0  69050-3 0  9994
2 46297  97.3737 109.3370 0000463  95.7962 264.3334 15.34688437189451
TTU100                  
1 46312U 20061AS  24036.75929379  .00048025  00000+0  11901-2 0  9993
2 46312  97.3752 110.4705 0001638 240.5438 119.5645 15.40247378189597
KEPLER-2 (TARS)         
1 46319U 20061AZ  24036.44000443  .00026132  00000+0  87349-3 0  9993
2 46319  97.3723 106.9382 0001173 186.8314 173.2912 15.30982856189390
NAPA-1                  
1 46320U 20061BA  24036.80950365  .00012342  00000+0  56794-3 0  9990
2 46320  97.3739 103.0030 0001537 215.8476 144.2657 15.20463904189169
FLOCK 4V-2              
1 46321U 20061BB  24036.17334976  .01093655  59038-3  23742-2 0  9997
2 46321  97.3215 118.1167 0004634 289.6570  70.4207 15.98441999189988
JILIN-1 GAOFEN 3B       
1 46454U 20065A   24036.82527384  .00012803  00000+0  56550-3 0  9997
2 46454  97.3640  84.3341 0010747 330.3053  29.7571 15.21812406187279
JILIN-1 GAOFEN 3E       
1 46457U 20065D   24036.83267863  .00012166  00000+0  53972-3 0  9991
2 46457  97.3649  84.4455 0009957 351.7867   8.3204 15.21682528187275
JILIN-1 GAOFEN 3F       
1 46458U 20065E   24036.80810420  .00013090  00000+0  58007-3 0  9993
2 46458  97.3583  83.3561 0010067 340.1560  19.9283 15.21702089187275
JILIN-1 GAOFEN 3G       
1 46459U 20065F   24036.72759726  .00012575  00000+0  55611-3 0  9991
2 46459  97.3701  85.3282 0011021 345.7204  14.3719 15.21772893187269
JILIN-1 GAOFEN 3H       
1 46460U 20065G   24036.81801260  .00012535  00000+0  55786-3 0  9993
2 46460  97.3594  83.5569 0010243 342.4409  17.6471 15.21563731187276
JILIN-1 GAOFEN 3J       
1 46462U 20065J   24036.83706390  .00012070  00000+0  53375-3 0  9991
2 46462  97.3638  84.4269 0009935 340.7213  19.3646 15.21794497187283
HAIYANG-2C              
1 46469U 20066A   24036.83376683 -.00000011  00000+0  64049-4 0  9991
2 46469  65.9946 202.3511 0014045 263.8914  96.0554 13.83375778170493
HJ-2A                   
1 46478U 20067A   24036.82212422  .00001282  00000+0  19134-3 0  9995
2 46478  97.9500 120.9666 0001699 125.6272 234.5097 14.76478619181004
HJ-2B                   
1 46479U 20067B   24036.78950539  .00001275  00000+0  19009-3 0  9992
2 46479  97.9537 121.4335 0001134 122.2085 237.9235 14.76540026181006
